{
  "type": "FeatureCollection",
  "features": [
    {
      "type": "Feature",
      "properties": {
        "norad_id": 66877,
        "name": "ZQ-3 R/B",
        "group": "last-30-days",
        "lat": -31.461600597822056,
        "lon": -144.32109248698723,
        "alt_km": 177.7609270720459,
        "timestamp": "2025-12-24T09:46:29.716539+00:00",
        "meta_object_name": "ZQ-3 R/B",
        "meta_object_id": "2025-282A",
        "meta_epoch": "2025-12-24T03:53:49.392672",
        "meta_mean_motion": 14.82884481,
        "meta_eccentricity": 0.0682279,
        "meta_inclination": 56.949,
        "meta_ra_of_asc_node": 13.1714,
        "meta_arg_of_pericenter": 240.1158,
        "meta_mean_anomaly": 113.0416,
        "meta_ephemeris_type": 0,
        "meta_classification_type": "U",
        "meta_norad_cat_id": 66877,
        "meta_element_set_no": 999,
        "meta_rev_at_epoch": 307,
        "meta_bstar": 0.00017131,
        "meta_mean_motion_dot": 0.00998294,
        "meta_mean_motion_ddot": 7.8945e-06,
        "tle_line1": "1 66877U 25282A   25358.16237723  .00998294  78945-5  17131-3 0  9992",
        "tle_line2": "2 66877  56.9490  13.1714 0682279 240.1158 113.0416 14.82884481  3075"
      },
      "geometry": {
        "type": "Point",
        "coordinates": [
          -144.32109248698723,
          -31.461600597822056
        ]
      }
    },
    {
      "type": "Feature",
      "properties": {
        "norad_id": 66878,
        "name": "STARLINK-35866",
        "group": "last-30-days",
        "lat": 3.7599461670022016,
        "lon": 18.404596322527414,
        "alt_km": 372.14681336874946,
        "timestamp": "2025-12-24T09:46:29.716549+00:00",
        "meta_object_name": "STARLINK-35866",
        "meta_object_id": "2025-283A",
        "meta_epoch": "2025-12-24T04:00:01.998720",
        "meta_mean_motion": 15.66562379,
        "meta_eccentricity": 0.0001352,
        "meta_inclination": 53.1593,
        "meta_ra_of_asc_node": 16.7603,
        "meta_arg_of_pericenter": 78.9955,
        "meta_mean_anomaly": 8.621,
        "meta_ephemeris_type": 0,
        "meta_classification_type": "U",
        "meta_norad_cat_id": 66878,
        "meta_element_set_no": 999,
        "meta_rev_at_epoch": 426,
        "meta_bstar": -0.021457,
        "meta_mean_motion_dot": -0.02011174,
        "meta_mean_motion_ddot": 0,
        "tle_line1": "1 66878U 25283A   25358.16668980 -.02011174  00000+0 -21457-1 0  9999",
        "tle_line2": "2 66878  53.1593  16.7603 0001352  78.9955   8.6210 15.66562379  4269"
      },
      "geometry": {
        "type": "Point",
        "coordinates": [
          18.404596322527414,
          3.7599461670022016
        ]
      }
    },
    {
      "type": "Feature",
      "properties": {
        "norad_id": 66879,
        "name": "STARLINK-35749",
        "group": "last-30-days",
        "lat": 6.819791003595176,
        "lon": 20.716285427922774,
        "alt_km": 371.6497568382156,
        "timestamp": "2025-12-24T09:46:29.716559+00:00",
        "meta_object_name": "STARLINK-35749",
        "meta_object_id": "2025-283B",
        "meta_epoch": "2025-12-24T04:00:01.998720",
        "meta_mean_motion": 15.66564272,
        "meta_eccentricity": 0.000146,
        "meta_inclination": 53.1594,
        "meta_ra_of_asc_node": 16.7519,
        "meta_arg_of_pericenter": 80.0731,
        "meta_mean_anomaly": 11.3759,
        "meta_ephemeris_type": 0,
        "meta_classification_type": "U",
        "meta_norad_cat_id": 66879,
        "meta_element_set_no": 999,
        "meta_rev_at_epoch": 426,
        "meta_bstar": -0.021485,
        "meta_mean_motion_dot": -0.02013653,
        "meta_mean_motion_ddot": 0,
        "tle_line1": "1 66879U 25283B   25358.16668980 -.02013653  00000+0 -21485-1 0  9995",
        "tle_line2": "2 66879  53.1594  16.7519 0001460  80.0731  11.3759 15.66564272  4266"
      },
      "geometry": {
        "type": "Point",
        "coordinates": [
          20.716285427922774,
          6.819791003595176
        ]
      }
    },
    {
      "type": "Feature",
      "properties": {
        "norad_id": 66880,
        "name": "STARLINK-35844",
        "group": "last-30-days",
        "lat": 5.292210342537673,
        "lon": 19.558603499644132,
        "alt_km": 371.91943156105754,
        "timestamp": "2025-12-24T09:46:29.716569+00:00",
        "meta_object_name": "STARLINK-35844",
        "meta_object_id": "2025-283C",
        "meta_epoch": "2025-12-24T04:00:01.998720",
        "meta_mean_motion": 15.66562295,
        "meta_eccentricity": 0.0001325,
        "meta_inclination": 53.1596,
        "meta_ra_of_asc_node": 16.7562,
        "meta_arg_of_pericenter": 79.7324,
        "meta_mean_anomaly": 9.8017,
        "meta_ephemeris_type": 0,
        "meta_classification_type": "U",
        "meta_norad_cat_id": 66880,
        "meta_element_set_no": 999,
        "meta_rev_at_epoch": 426,
        "meta_bstar": -0.021459,
        "meta_mean_motion_dot": -0.0201124,
        "meta_mean_motion_ddot": 0,
        "tle_line1": "1 66880U 25283C   25358.16668980 -.02011240  00000+0 -21459-1 0  9998",
        "tle_line2": "2 66880  53.1596  16.7562 0001325  79.7324   9.8017 15.66562295  4263"
      },
      "geometry": {
        "type": "Point",
        "coordinates": [
          19.558603499644132,
          5.292210342537673
        ]
      }
    },
    {
      "type": "Feature",
      "properties": {
        "norad_id": 66881,
        "name": "STARLINK-35860",
        "group": "last-30-days",
        "lat": 8.347328826552443,
        "lon": 21.88375912644426,
        "alt_km": 371.402167695187,
        "timestamp": "2025-12-24T09:46:29.716579+00:00",
        "meta_object_name": "STARLINK-35860",
        "meta_object_id": "2025-283D",
        "meta_epoch": "2025-12-24T04:00:01.998720",
        "meta_mean_motion": 15.66560849,
        "meta_eccentricity": 0.0001439,
        "meta_inclination": 53.1596,
        "meta_ra_of_asc_node": 16.7479,
        "meta_arg_of_pericenter": 79.7917,
        "meta_mean_anomaly": 13.5769,
        "meta_ephemeris_type": 0,
        "meta_classification_type": "U",
        "meta_norad_cat_id": 66881,
        "meta_element_set_no": 999,
        "meta_rev_at_epoch": 426,
        "meta_bstar": -0.021447,
        "meta_mean_motion_dot": -0.02010251,
        "meta_mean_motion_ddot": 0,
        "tle_line1": "1 66881U 25283D   25358.16668980 -.02010251  00000+0 -21447-1 0  9997",
        "tle_line2": "2 66881  53.1596  16.7479 0001439  79.7917  13.5769 15.66560849  4264"
      },
      "geometry": {
        "type": "Point",
        "coordinates": [
          21.88375912644426,
          8.347328826552443
        ]
      }
    },
    {
      "type": "Feature",
      "properties": {
        "norad_id": 66882,
        "name": "STARLINK-35912",
        "group": "last-30-days",
        "lat": 9.86923110591959,
        "lon": 23.059097808119226,
        "alt_km": 371.061367567826,
        "timestamp": "2025-12-24T09:46:29.716591+00:00",
        "meta_object_name": "STARLINK-35912",
        "meta_object_id": "2025-283E",
        "meta_epoch": "2025-12-24T04:00:01.998720",
        "meta_mean_motion": 15.66552156,
        "meta_eccentricity": 0.0001504,
        "meta_inclination": 53.1595,
        "meta_ra_of_asc_node": 16.7442,
        "meta_arg_of_pericenter": 74.6299,
        "meta_mean_anomaly": 20.6584,
        "meta_ephemeris_type": 0,
        "meta_classification_type": "U",
        "meta_norad_cat_id": 66882,
        "meta_element_set_no": 999,
        "meta_rev_at_epoch": 426,
        "meta_bstar": -0.021319,
        "meta_mean_motion_dot": -0.01999158,
        "meta_mean_motion_ddot": 0,
        "tle_line1": "1 66882U 25283E   25358.16668980 -.01999158  00000+0 -21319-1 0  9997",
        "tle_line2": "2 66882  53.1595  16.7442 0001504  74.6299  20.6584 15.66552156  4260"
      },
      "geometry": {
        "type": "Point",
        "coordinates": [
          23.059097808119226,
          9.86923110591959
        ]
      }
    },
    {
      "type": "Feature",
      "properties": {
        "norad_id": 66883,
        "name": "STARLINK-35947",
        "group": "last-30-days",
        "lat": 11.395406585511497,
        "lon": 24.252065887886836,
        "alt_km": 370.8804566102326,
        "timestamp": "2025-12-24T09:46:29.716603+00:00",
        "meta_object_name": "STARLINK-35947",
        "meta_object_id": "2025-283F",
        "meta_epoch": "2025-12-24T04:00:01.998720",
        "meta_mean_motion": 15.66565883,
        "meta_eccentricity": 0.0001373,
        "meta_inclination": 53.1595,
        "meta_ra_of_asc_node": 16.7406,
        "meta_arg_of_pericenter": 77.0508,
        "meta_mean_anomaly": 20.1561,
        "meta_ephemeris_type": 0,
        "meta_classification_type": "U",
        "meta_norad_cat_id": 66883,
        "meta_element_set_no": 999,
        "meta_rev_at_epoch": 431,
        "meta_bstar": -0.021596,
        "meta_mean_motion_dot": -0.02022869,
        "meta_mean_motion_ddot": 0,
        "tle_line1": "1 66883U 25283F   25358.16668980 -.02022869  00000+0 -21596-1 0  9992",
        "tle_line2": "2 66883  53.1595  16.7406 0001373  77.0508  20.1561 15.66565883  4312"
      },
      "geometry": {
        "type": "Point",
        "coordinates": [
          24.252065887886836,
          11.395406585511497
        ]
      }
    }
  ]
}